id,streetName,city,buildingNr,postalCode,apartmentNr
1,3rd,Pinhais,90,18-209,192
2,Fairview,Xindong,6,55-555,7
3,Springview,Bao’an,9,11-678,136
4,Longview,Jansenville,75,43-080,44
5,Starling,Lianovérgi,18,31-421,7
6,Huxley,Yonggu,33,38-300,198
7,Mcguire,São Lourenço da Mata,6,38-300,100
8,Dakota,Liuli,63,11-456,36
9,Sachs,Cuihuangkou,75,31-421,195
10,Schiller,Maisons-Alfort,47,55-555,91
11,Heath,Lojejerkrajan,15,11-678,128
12,Moland,Kāleke Mandi,3,18-209,138
13,Sauthoff,Kuantan,77,38-300,169
14,Esch,Camilaca,46,15-145,85
15,Parkside,Kiboga,73,67-023,129
16,Knutson,Malibong East,80,15-145,159
17,Darwin,Usukhchay,61,15-145,9
18,Bellgrove,Oulmes,55,18-209,140
19,Steensland,Kavásilas,28,11-123,17
20,Commercial,Sanzhang,49,22-446,32
21,Bartillon,Mercedes,29,11-321,196
22,Chinook,Loakulu,55,12-123,100
23,Village Green,Cruz del Eje,59,67-023,86
24,Melby,Suvorovskaya,25,55-555,183
25,Hanover,Baohe,19,11-321,67
26,Sachs,Lyon,43,67-023,122
27,Troy,Canavieiras,50,11-123,195
28,Eliot,Ploso,36,38-300,68
29,Paget,Huacho,75,38-300,142
30,Donald,Shatian,76,22-446,98
31,Kinsman,Estarreja,9,11-321,40
32,Hintze,Salavat,46,43-080,63
33,Jay,Mstów,91,31-421,91
34,Fairfield,Winston Salem,10,55-555,59
35,Stone Corner,Mstsislaw,93,18-209,37
36,Blue Bill Park,Serra de Santa Marinha,24,11-321,39
37,Bartillon,Kallithéa,82,38-300,105
38,Reindahl,Zhiqing Songduo,28,55-555,118
39,Butternut,Río Grande,35,43-080,115
40,Dayton,Walichnowy,81,18-209,130
41,Onsgard,Wangda,68,11-321,62
42,Superior,Wolin,56,67-023,154
43,Di Loreto,Geldrop,80,38-300,137
44,Manitowish,Pasirhuni,2,67-023,69
45,Oak Valley,San Luis,7,22-446,70
46,Swallow,Kalianyar Selatan,47,67-023,33
47,Moose,Baomin,17,31-421,144
48,Coleman,La Ferté-Bernard,92,18-209,172
49,Susan,Banjing,67,22-446,174
50,Rigney,Jietou,43,18-209,12
51,Oakridge,Puerto Guzmán,96,22-446,54
52,Starling,Sangallaya,31,15-145,157
53,Darwin,Santa Lucia,17,12-123,4
54,Orin,Botlhapatlou,80,55-555,173
55,Fulton,Escola,81,11-123,124
56,Di Loreto,Borisovka,24,12-123,98
57,Alpine,Moquegua,43,11-321,122
58,Roxbury,Talzemt,50,43-080,142
59,Bay,Saladas,87,12-123,195
60,Elgar,Vanadzor,58,31-421,120
61,6th,Karangasem,36,12-123,144
62,Northport,Novosel’ye,55,18-209,16
63,Northfield,Heyan,10,55-555,122
64,Novick,Vetlanda,93,11-321,121
65,Fallview,Pacapausa,81,15-145,148
66,Thierer,Kamen,81,15-145,85
67,Karstens,Cidade Velha,61,55-555,158
68,Del Sol,Visby,14,43-080,69
69,Schlimgen,Melchor Ocampo,31,38-300,142
70,Jenna,Kaliasin,57,31-421,161
71,6th,Sunfang,95,18-209,141
72,Maywood,Kusŏng,86,12-123,153
73,Bartillon,Putatbasiun,98,22-446,22
74,Mcguire,Qingchuan,20,43-080,154
75,Clyde Gallagher,Novopokrovka,57,31-421,69
76,Southridge,Panglanjan,10,11-678,94
77,Jenna,Cikeper,26,18-209,157
78,Claremont,Calango,25,18-209,56
79,Banding,Nový Bor,48,38-300,28
80,Upham,Fichē,41,22-446,160
81,Hollow Ridge,Kademangan,56,11-321,170
82,Dunning,Pekuwon,15,43-080,44
83,Roth,Kebonkaret,15,11-456,175
84,Sachtjen,Guadalupe,35,22-446,142
85,Hovde,Sekolan,1,38-300,173
86,Fallview,Labo,23,38-300,48
87,Lien,Heiheba,61,11-456,187
88,Maple,Sincé,11,11-321,192
89,International,Quelimane,23,12-123,126
90,Eggendart,Houston,90,43-080,193
91,Saint Paul,Haninge,86,31-421,115
92,Loftsgordon,Niederwaldkirchen,65,18-209,66
93,Ridge Oak,Cipaku,59,67-023,10
94,Starling,Sindangsari,62,43-080,183
95,Bunting,Orsha,74,38-300,10
96,Bluejay,Eaton,59,18-209,19
97,High Crossing,Vanves,56,38-300,197
98,Claremont,Springfield,47,38-300,86
99,Logan,Anin,35,11-678,26
100,Forest Dale,Kímolos,18,55-555,13
101,Sunnyside,Huangzhawan,89,55-555,117
102,Northport,Marseille,72,12-123,2
103,Hooker,Penticton,74,11-321,182
104,Anzinger,Argelia,29,18-209,197
105,Merchant,Kuala Lumpur,53,11-123,144
106,Forster,Federal,81,11-321,11
107,Stoughton,Tunggar,3,15-145,131
108,Judy,Caseros,68,43-080,119
109,Bluestem,Sabunçu,92,11-678,97
110,Anzinger,Kilifi,93,67-023,86
111,Lillian,Compiègne,62,12-123,178
112,Towne,Daraitan,75,55-555,13
113,Dottie,Tasböget,52,43-080,114
114,Brown,Atsipópoulon,12,11-321,13
115,New Castle,El Coco,24,12-123,113
116,Hoepker,Americana,54,38-300,120
117,Novick,Oskarshamn,29,12-123,109
118,Northfield,Fernández,45,31-421,107
119,Sheridan,Montpellier,16,31-421,79
120,Service,Pakis,61,11-123,118
121,Lakewood Gardens,San Miguel,76,22-446,83
122,Pennsylvania,Ríohacha,94,12-123,156
123,Ruskin,Okayama-shi,73,11-123,64
124,Summer Ridge,Cholet,82,11-321,198
125,Sommers,Talghar,61,18-209,189
126,Shasta,Eha Amufu,5,22-446,90
127,Fulton,Gondanglegi Wetan,65,55-555,73
128,Lunder,Khrenovoye,71,18-209,179
129,Jenna,Tan-Tan,52,38-300,8
130,Tennyson,Kamimaruko,9,18-209,132
131,Anhalt,Trzciana,26,11-123,153
132,Fuller,Muara Sabak,99,43-080,20
133,Coolidge,Murów,19,55-555,34
134,Blue Bill Park,Luowan,43,11-321,116
135,International,Las Americas,14,18-209,107
136,Tennessee,Krueng Luak,1,11-678,90
137,Laurel,Nguékhokh,65,38-300,187
138,Claremont,Kuala Tuha,27,67-023,33
139,Garrison,Kalianget,34,43-080,15
140,Caliangt,Kaishantun,10,12-123,30
141,Banding,David,73,22-446,34
142,Ryan,Fuqiang,20,11-456,186
143,Clyde Gallagher,Dearborn,24,11-123,147
144,Badeau,Johanneshov,88,43-080,195
145,Fremont,Lulindi,27,12-123,193
146,Gulseth,Pilcuyo,31,22-446,33
147,Towne,Daitōchō,29,22-446,197
148,Delladonna,Horní Lideč,37,15-145,33
149,Pawling,Petit Raffray,49,18-209,121
150,Mcguire,Liběšice,28,11-456,36
151,Ryan,Moscow,67,43-080,24
152,Cambridge,Cisalak,43,11-321,155
153,Prairieview,Jardim,17,11-123,52
154,Dorton,Lanyang,74,22-446,59
155,Morrow,Šavnik,49,55-555,96
156,Loftsgordon,Tanxi,60,11-321,193
157,Warrior,Achada,47,18-209,200
158,Coolidge,Al Qanāţir al Khayrīyah,97,12-123,137
159,Quincy,Amarillo,73,43-080,175
160,John Wall,Kréstena,73,38-300,114
161,Starling,Cam Lộ,70,12-123,125
162,Morningstar,Karangnongko,88,11-321,114
163,Tennessee,Matango,47,43-080,5
164,Hoepker,Chita,58,11-321,78
165,Autumn Leaf,Negararatu,31,18-209,179
166,Gulseth,Mancos,74,38-300,28
167,Warrior,Fengshan,65,11-321,182
168,Kinsman,Valašská Polanka,76,22-446,3
169,Schurz,Tafo,60,22-446,14
170,Novick,Kastrat,95,11-321,163
171,Buena Vista,Le Raincy,24,67-023,200
172,Sunbrook,Ake-Eze,79,67-023,91
173,Florence,Mizhirah,56,12-123,96
174,Oak Valley,Dawwār Tīnjah,89,18-209,143
175,Becker,Catayauan,99,11-678,129
176,West,Järfälla,23,12-123,109
177,Bellgrove,Qingyang,31,15-145,122
178,Michigan,Thung Song,33,11-678,50
179,Menomonie,Prroshyan,63,11-123,63
180,Cambridge,Kuntong,18,67-023,2
181,Holmberg,Linpu,44,11-123,27
182,Hagan,Goléré,6,11-321,188
183,Nova,Johanneshov,53,38-300,62
184,Arapahoe,Malasiqui,34,43-080,183
185,Kinsman,Venlo,59,38-300,177
186,Dahle,Старо Нагоричане,80,12-123,112
187,Burning Wood,Cemara,56,38-300,80
188,Lindbergh,Prámanta,80,31-421,15
189,Johnson,Gur’yevsk,5,22-446,14
190,Bartillon,Soho,63,22-446,105
191,Novick,Sosnovo-Ozerskoye,90,43-080,40
192,Schlimgen,Emmaboda,82,12-123,179
193,Mallard,Busuanga,51,12-123,126
194,Petterle,Aluminé,58,11-321,167
195,Westend,Lümeng,26,18-209,188
196,Algoma,Czarna,82,11-123,100
197,Pepper Wood,Hongch’ŏn,63,31-421,63
198,Linden,Skhodnitsa,49,11-321,181
199,Pierstorff,Luxi,25,18-209,115
200,Village Green,Campos Belos,47,55-555,180
201,Cottonwood,Cañada de Gómez,80,38-300,157
202,Nelson,Rekovac,4,11-678,190
203,Londonderry,Qiucun,22,43-080,78
204,Stephen,Santa Valha,58,38-300,186
205,Milwaukee,Huji,46,11-123,25
206,Chinook,Gaojimiao,20,11-678,137
207,Jenifer,Lela,22,11-321,75
208,Declaration,Kahnūj,61,11-678,153
209,Hanover,Parakanbeusi,4,11-678,130
210,Lakewood,San Agustin,3,38-300,104
211,Prairieview,Andorinha,42,22-446,33
212,Village Green,Chengbei,3,15-145,115
213,Vidon,Velyka Bilozerka,55,11-321,187
214,Lyons,Ngudu,28,11-678,140
215,Del Sol,Battambang,18,55-555,116
216,Holmberg,Manamrag,16,11-456,98
217,Mandrake,Gandara,36,31-421,194
218,Little Fleur,Ključ,10,15-145,18
219,Morning,Ruma,70,11-456,44
220,Anderson,Tidili Mesfioua,30,67-023,118
221,Welch,Pubu,28,38-300,107
222,New Castle,Aurillac,51,22-446,68
223,Kipling,Jermuk,68,12-123,197
224,Northport,Niechanowo,69,18-209,46
225,Stephen,Changbao,1,67-023,130
226,Union,Yangyu,2,15-145,46
227,Schurz,Zhuxi Chengguanzhen,63,11-123,26
228,Granby,Pilar,74,22-446,137
229,Ruskin,Kariat Arkmane,90,18-209,171
230,Cottonwood,Reina Mercedes,14,15-145,43
231,Jenifer,José Bonifácio,9,43-080,38
232,Utah,Trinidad,71,11-123,145
233,Hoepker,Pärnu,74,11-321,102
234,Golf View,Lewograran,51,15-145,99
235,Pearson,Tarragona,94,43-080,69
236,Spaight,Buy,83,67-023,76
237,Sage,Momignies,60,11-678,99
238,Lighthouse Bay,Valença do Piauí,70,12-123,97
239,Leroy,Montreuil,28,38-300,5
240,Onsgard,Pingling,87,11-321,126
241,Amoth,Muḩammad Āghah Wuluswālī,22,11-321,161
242,Manitowish,Leran Kulon,91,11-456,175
243,Merry,Potoci,15,15-145,189
244,Hagan,Bamban,21,12-123,185
245,Hallows,Rungis,69,22-446,66
246,Rockefeller,Saint-Étienne,28,67-023,53
247,Banding,Krajan Tengah,90,43-080,27
248,Victoria,Jingxin,39,38-300,68
249,Miller,Bingerville,29,11-123,168
250,Hauk,Marshintsy,92,55-555,73
251,Cottonwood,Tanghu,67,11-123,15
252,Mitchell,Pinheiro Machado,10,31-421,143
253,Randy,Hatavch,61,11-123,48
254,Grasskamp,Yanahuaya,2,31-421,75
255,Utah,Bautista,85,67-023,126
256,Troy,Červené Pečky,68,11-456,31
257,Arapahoe,Nagrumbuan,99,11-123,25
258,Russell,Thetford-Mines,8,38-300,96
259,Red Cloud,Bayt ‘Anān,35,11-678,104
260,Hoard,Mirabel,45,55-555,130
261,Walton,Propriá,50,12-123,133
262,Utah,Xinzhan,17,31-421,103
263,Brentwood,Martyush,76,38-300,172
264,Northfield,Vårby,38,38-300,134
265,Esker,Igarapé Miri,36,11-321,176
266,Fallview,Turze Pole,91,67-023,43
267,Forest,Arthur’s Town,92,43-080,108
268,Glacier Hill,Las Vegas,51,55-555,148
269,Northland,Słupno,67,11-123,192
270,Blaine,Gaspra,94,11-321,62
271,Merchant,Cola,88,11-456,65
272,Express,Rasūlnagar,82,55-555,140
273,Truax,Memphis,69,18-209,85
274,Almo,Valencia,69,31-421,10
275,Service,Yongning,98,12-123,20
276,Prairie Rose,Tunis,44,67-023,132
277,Vidon,Dazaifu,51,18-209,21
278,Kensington,Boa Esperança,16,22-446,32
279,Packers,Jutrosin,41,11-456,78
280,Corben,Blang Dalam,44,11-321,172
281,Manley,Tianshan,63,11-321,152
282,Roxbury,Yilkiqi,41,55-555,69
283,La Follette,Huangshi,23,11-456,110
284,Barnett,Tulay na Lupa,98,38-300,148
285,Independence,Pashkovskiy,70,11-321,178
286,Columbus,Angoulême,46,22-446,175
287,Oak Valley,Wichita,30,15-145,69
288,Bartillon,Kawagoe,58,43-080,144
289,Bluejay,Glagahan,51,22-446,53
290,Porter,Pandanrejokrajan,66,12-123,94
291,Towne,Iwatsuki,77,11-678,66
292,Homewood,Suure-Jaani,77,11-123,82
293,Fordem,Shishi,80,15-145,147
294,Mockingbird,Hushaat,63,31-421,178
295,Reindahl,Charneca da Cotovia,48,12-123,147
296,Moulton,Shatrovo,90,12-123,149
297,Burrows,Ajaccio,25,15-145,170
298,Carpenter,Mafa,14,18-209,90
299,Mandrake,Infonavit,35,18-209,103
300,Jana,Banjar Buahan,80,38-300,26
301,Stephen,Westonaria,35,22-446,105
302,Cascade,Peteranec,65,11-678,85
303,Victoria,Anār Darah,14,55-555,180
304,Hazelcrest,Cabo de Vila,53,38-300,192
305,Dennis,Sayama,32,11-123,148
306,Coleman,Kantemirovka,61,11-678,197
307,Brown,Talisay,49,31-421,89
308,Miller,Uva,55,15-145,122
309,Onsgard,Escada,52,31-421,124
310,Hollow Ridge,Lyon,91,11-456,75
311,Eliot,Karanglincak,41,38-300,128
312,Toban,Cayungnan,69,18-209,83
313,Hagan,Nysa,57,12-123,153
314,Huxley,Blerim,97,11-678,86
315,Dunning,Linhares,18,67-023,174
316,Golf View,Andkhōy,9,43-080,145
317,Lakewood Gardens,Bonn,53,43-080,200
318,Weeping Birch,Bastos,90,11-456,102
319,Nobel,Strängnäs,75,15-145,83
320,Maywood,Rayong,83,31-421,7
321,Vernon,Sovetskiy,75,55-555,24
322,Briar Crest,Naranjal,8,11-678,30
323,Shoshone,Kolomyagi,34,18-209,147
324,Bluestem,Novokizhinginsk,10,11-456,31
325,Knutson,Rajhradice,13,11-123,107
326,Grim,Kandana,67,55-555,161
327,Brown,Bella Vista,76,15-145,143
328,Riverside,Sukamaju Kidul,50,11-123,135
329,Clarendon,Fubin,69,55-555,156
330,Lerdahl,Yako,10,43-080,22
331,Lotheville,Junín,91,11-456,126
332,Sundown,Lipljan,20,11-123,151
333,Melvin,Taifu,49,12-123,92
334,Anzinger,Thị Trấn Yên Ninh,32,11-678,16
335,Ludington,Zavetnoye,14,11-123,108
336,Michigan,Baturaja,10,11-678,155
337,Shasta,Orly,60,55-555,65
338,Heath,Santa Lucía,8,11-456,196
339,Dayton,Grazhdanka,43,15-145,118
340,Monterey,Huishi,47,67-023,150
341,Commercial,Beiqijia,97,11-678,131
342,Mayer,Baoluan,74,11-123,10
343,Ohio,Rancaseneng,36,11-123,107
344,Northland,Vihāri,59,55-555,86
345,Anhalt,Oroin Xibe,6,11-321,171
346,Menomonie,Ampahana,80,22-446,4
347,Superior,Hanjia,6,15-145,169
348,Rieder,Shipunovo,45,67-023,191
349,Nelson,Arcena Pequena,55,31-421,159
350,Ohio,Aliwal North,61,15-145,197
351,Welch,Navoiy,66,11-456,42
352,Butterfield,Nový Bydžov,77,11-123,126
353,Union,Oefatu,22,11-678,178
354,Roth,Zhutang,94,43-080,63
355,Maywood,Kvasy,67,38-300,154
356,Leroy,Leeds,70,55-555,92
357,Ryan,Dougang,15,15-145,146
358,Clyde Gallagher,Vila Nova de Milfontes,1,22-446,161
359,Heath,Lille,70,15-145,125
360,Memorial,Genève,47,67-023,184
361,Paget,Podhum,92,31-421,63
362,East,Luxi,92,38-300,115
363,Waxwing,Kitakami,5,12-123,118
364,Garrison,Chão,25,55-555,68
365,Manitowish,Saint-Louis,100,11-678,112
366,Toban,Mandiana,5,11-678,106
367,Sheridan,Dehī,31,11-678,74
368,Mayfield,Daliciasao,67,11-456,111
369,Clove,Dongshan,94,11-678,32
370,Barnett,Nofoali‘i,92,11-321,29
371,Logan,Valday,23,67-023,139
372,Esker,Ar Rumaythīyah,96,18-209,112
373,Duke,‘Amrān,5,15-145,39
374,Del Mar,Zhentian,35,67-023,179
375,Ridgeway,Hernando,67,11-321,14
376,Del Mar,Al Wardānīn,34,67-023,82
377,Green Ridge,San Jose,30,22-446,179
378,Golf Course,Cabeçudos,1,22-446,150
379,Farwell,Niebocko,40,38-300,42
380,Center,Ejmiatsin,30,67-023,56
381,Transport,Tortosa,22,15-145,159
382,Dryden,Drochia,37,11-678,177
383,Arkansas,Lepoglava,49,67-023,19
384,Lawn,Płońsk,87,31-421,32
385,7th,San Sebastian,72,15-145,163
386,Grasskamp,Alajuela,79,43-080,10
387,Manufacturers,Águas de Lindóia,96,11-678,41
388,Miller,Centralniy,66,15-145,17
389,Vermont,Prinza,9,11-456,74
390,Gale,Moissy-Cramayel,20,22-446,23
391,Briar Crest,Węgliniec,76,67-023,8
392,Hallows,Wonocolo,39,11-321,80
393,Hagan,Keta,53,11-123,44
394,Buell,Xiaba,80,11-456,110
395,Trailsway,Huansheng,9,11-678,120
396,Westport,Yumaguzino,66,18-209,92
397,Mcbride,Vallenar,11,55-555,158
398,Northland,Challans,15,55-555,195
399,Scofield,Sławatycze,92,55-555,38
400,Kipling,Panambi,74,11-456,199
401,Dunning,Gyigang,4,43-080,190
402,Onsgard,Pokrovka,25,11-456,193
403,Briar Crest,Radziszów,26,18-209,13
404,Canary,Oumiao,61,11-321,59
405,Mcbride,Rybczewice,52,55-555,166
406,Prairie Rose,Kinsale,17,11-321,107
407,Vera,Igrim,42,22-446,186
408,Rockefeller,Kimberley,82,31-421,100
409,Mesta,Miyako,6,11-678,167
410,Del Mar,Spas-Klepiki,4,11-456,74
411,Killdeer,Núi Đối,13,55-555,8
412,Anniversary,Oeleon,1,11-456,13
413,Roxbury,Višňové,28,18-209,146
414,Hagan,Mishima,79,55-555,183
415,Kingsford,Santo Antônio de Jesus,18,15-145,89
416,4th,Colorado Springs,62,11-456,106
417,Green,Miguelópolis,71,67-023,20
418,Clove,Brignoles,3,11-456,28
419,Hagan,Grzęska,35,11-678,71
420,Myrtle,Tuusniemi,87,55-555,52
421,High Crossing,Monguno,53,15-145,58
422,Service,Soufrière,43,67-023,184
423,Graceland,Vazante,63,22-446,188
424,Anniversary,Estreito,76,18-209,20
425,Orin,Lyeskawka,29,11-321,72
426,Kedzie,Tsingoni,4,31-421,161
427,Hintze,Vila do Bispo,77,11-456,184
428,Buell,Madan,35,55-555,189
429,Goodland,Brzozów,38,38-300,194
430,Morning,Bīrganj,99,38-300,121
431,Randy,Yerba Buena,38,38-300,136
432,Atwood,Tëplaya Gora,71,22-446,149
433,Fordem,Giade,28,43-080,75
434,Kedzie,Distracción,31,38-300,5
435,Meadow Valley,Vendas de Galizes,100,12-123,125
436,Farragut,Krylovskaya,51,15-145,197
437,Warrior,Mammari,61,18-209,131
438,Porter,Rosmalen,44,22-446,55
439,American,Talavera,59,11-123,67
440,Arkansas,Mingguang,28,12-123,49
441,Village,Nan,40,11-678,192
442,Westport,Wafang,10,22-446,172
443,Kinsman,Itabaiana,79,38-300,74
444,Spaight,Kisoro,17,67-023,108
445,American,Caspisapa,20,11-456,137
446,Brentwood,Bolembre,84,11-456,111
447,8th,Toamasina,40,11-321,38
448,Dottie,Pedinó,40,55-555,80
449,Forest Run,Pagak,49,67-023,18
450,Dunning,Trelleborg,35,11-456,199
451,Shoshone,Zaliztsi,78,22-446,184
452,Pennsylvania,Gbarnga,50,55-555,66
453,Welch,Covas,25,11-678,132
454,Vidon,Joubb Jannîne,32,11-456,35
455,Dorton,Jianxincun,93,55-555,47
456,Main,Langtad,91,31-421,115
457,Cascade,Dingyan,80,31-421,112
458,Waxwing,Pointe-à-Pitre,45,22-446,197
459,Esker,Magdalena,13,22-446,188
460,Rowland,Mencon,77,11-321,189
461,Kings,Moss,2,11-321,58
462,Oakridge,San Antonio,64,11-678,98
463,Swallow,Ishige,100,55-555,88
464,Clyde Gallagher,Shinjō,71,11-123,121
465,Sloan,Nyurba,16,15-145,44
466,Maple Wood,Fauske,93,67-023,167
467,Fisk,Logan Lake,58,55-555,154
468,Glacier Hill,Rawawilis,18,11-123,28
469,Comanche,Sędziejowice,25,15-145,198
470,Westport,La Unión,56,22-446,187
471,Maryland,Tsapêraī,53,55-555,51
472,Melrose,Staroutkinsk,27,38-300,10
473,Declaration,Shuidong,14,15-145,61
474,Mifflin,Podgornaya,90,43-080,81
475,Pearson,Hamburg,14,67-023,136
476,Daystar,Kępice,65,15-145,6
477,Lien,Helsingborg,59,11-123,103
478,Fair Oaks,Lewolang,20,15-145,95
479,Petterle,Shanhaiguan,35,11-321,47
480,Moose,Los Angeles,88,67-023,103
481,Esker,Bayt ‘Adhāqah,88,43-080,11
482,Farragut,Mzuzu,91,38-300,20
483,Holy Cross,Willowdale,10,11-123,126
484,Lerdahl,Xinqiaohe,93,55-555,153
485,Hollow Ridge,Futu,92,43-080,1
486,Forest Run,Wang Sombun,17,11-456,160
487,2nd,Phú Vang,74,43-080,161
488,Mcguire,Feijó,25,11-123,153
489,Pierstorff,Sansanné-Mango,13,11-321,9
490,Bay,Kafr Nubl,21,11-456,165
491,Fremont,Coripata,65,55-555,85
492,Sachtjen,Santa Maria do Souto,84,11-321,195
493,Grover,Orange,78,55-555,128
494,Parkside,Socorro,78,11-678,154
495,Caliangt,Bordeaux,35,38-300,161
496,Sommers,Yong’an,75,11-321,134
497,Dwight,Citatah Kaler,73,67-023,24
498,Barby,Bor,9,11-678,12
499,Lindbergh,Huangzhawan,31,31-421,63
500,Longview,Batur Kidul,65,11-321,113
501,Ramsey,Caluya,42,12-123,102
502,Messerschmidt,Al ‘Āliyah,79,31-421,42
503,Grasskamp,Nambalan,1,11-123,16
504,Lukken,Miramichi,100,38-300,114
505,Carey,Huangxi,99,22-446,116
506,Lien,Wenquan,37,67-023,176
507,Garrison,Karobokan,84,15-145,9
508,4th,Maradi,98,31-421,62
509,Mayer,Nova Lima,47,15-145,120
510,Reindahl,Las Flores,98,38-300,22
511,Rusk,La Huerta,33,15-145,83
512,Hoepker,Dingqiao,45,55-555,144
513,Oneill,Fuyang,3,11-123,61
514,Golden Leaf,Los Angeles,20,55-555,37
515,Cordelia,Cristalina,9,12-123,183
516,Leroy,Cigintung,84,12-123,175
517,Mayfield,Jacksonville,41,31-421,148
518,Hansons,Paris 17,95,22-446,66
519,Blue Bill Park,Pangpang,94,11-678,20
520,Hudson,Barapas,1,12-123,95
521,Columbus,Campo Formoso,29,15-145,157
522,Toban,Cabalawan,17,55-555,85
523,Comanche,Kuybyshevo,72,43-080,198
524,Lien,Olmos,97,38-300,63
525,Merry,San José de Colinas,6,55-555,185
526,Glendale,Zhaoxian,94,43-080,60
527,Talmadge,Wongsorejo,99,11-678,98
528,Calypso,Zābolī,41,11-678,172
529,Lighthouse Bay,Sieroszewice,85,18-209,10
530,Delaware,Numeto,85,38-300,149
531,Fremont,Estoril,4,67-023,140
532,Debs,Fort Smith,81,38-300,98
533,Merrick,Saguiaran,76,11-456,191
534,Sheridan,Santa Ana,89,12-123,11
535,Caliangt,Evansville,10,11-678,42
536,Utah,Huangma,60,43-080,118
537,Beilfuss,Skellefteå,47,15-145,52
538,Kingsford,Sundsvall,86,22-446,153
539,Rigney,Kortowo,86,11-123,2
540,Troy,Banja Luka,24,43-080,110
541,Russell,Maredakalada,8,67-023,12
542,Division,Meishan,14,22-446,80
543,Gina,Rio Verde de Mato Grosso,78,38-300,85
544,Kensington,Želiv,27,11-678,76
545,Kedzie,Tsetsegnuur,71,11-321,184
546,Farragut,Filipowice,23,11-456,11
547,Mandrake,Palamadu,30,11-456,124
548,Mallard,Bobowo,20,18-209,91
549,Meadow Vale,Zhongmen,62,18-209,4
550,Claremont,Kotri,53,38-300,113
551,Kennedy,Ryazhsk,39,15-145,94
552,Golf Course,Shengtang,58,55-555,132
553,Gateway,Meitang,24,11-678,173
554,Petterle,Barra dos Coqueiros,77,15-145,94
555,Nova,Xicun,33,11-321,38
556,Portage,Cookshire-Eaton,89,43-080,101
557,Annamark,Kiên Lương,33,43-080,37
558,Shoshone,Arras,47,11-456,198
559,Onsgard,Zavoronezhskoye,21,22-446,196
560,Stephen,Thị Trấn Thọ Xuân,10,43-080,108
561,Marcy,Karangbungur,51,11-678,25
562,Maywood,Nytva,62,18-209,34
563,Schurz,Paphos,34,22-446,150
564,Coleman,San José,50,11-321,90
565,Judy,Sukacai Tengah,46,11-321,116
566,Pleasure,Karangsumber,25,67-023,96
567,Tomscot,Notre-Dame-de-l'Île-Perrot,56,22-446,131
568,Wayridge,Stockholm,73,15-145,115
569,Fulton,Frederiksberg,24,31-421,106
570,David,Dengjiang,59,55-555,62
571,Waxwing,Atami,51,55-555,130
572,Bultman,Siparia,99,11-456,173
573,Dahle,Verkhnya Rozhanka,80,11-123,192
574,Menomonie,Cordon,87,11-456,156
575,Waubesa,Winangun,86,15-145,88
576,Clove,Charleville-Mézières,69,38-300,81
577,Portage,Aix-en-Provence,95,11-456,123
578,Melby,Chaman,72,22-446,99
579,Arkansas,Biyong,26,11-321,46
580,Warbler,Jipijapa,21,67-023,168
581,School,Nantian,65,43-080,167
582,Hovde,Priyutovo,24,15-145,176
583,Ryan,Jintan,70,11-678,75
584,Tennessee,Somorpenang,37,31-421,32
585,Anniversary,Goodlands,12,11-456,180
586,Kensington,Quimper,69,22-446,107
587,Pleasure,Monte Patria,63,55-555,94
588,Milwaukee,Rogoza,65,55-555,144
589,Service,Kireyevsk,85,18-209,100
590,Milwaukee,Manassas,67,11-456,45
591,Stone Corner,Kraljevica,15,11-456,7
592,Mccormick,Tarikolot,11,38-300,186
593,Pearson,La Soledad,73,11-321,97
594,Hollow Ridge,Concordia,15,11-456,127
595,Brickson Park,Čížkovice,93,18-209,159
596,Fulton,Santa Ana,4,11-321,77
597,Delladonna,Montesson,40,43-080,111
598,Grayhawk,Banjarkemuning,55,11-678,38
599,Golden Leaf,Schaan,34,18-209,48
600,Thierer,Ujar,100,67-023,173
601,Memorial,Ocucaje,73,12-123,135
602,East,Kamyshevka Vtoraya,75,22-446,143
603,Trailsway,Acopampa,7,15-145,110
604,Susan,Ilangay,6,22-446,121
605,Florence,Tonga,97,43-080,95
606,Lotheville,Strážná,96,38-300,184
607,Swallow,Helong,5,11-456,75
608,Schmedeman,Zubin Potok,94,15-145,39
609,Sheridan,Borås,15,11-678,136
610,Golf,Huixing,20,55-555,181
611,South,Tola,42,11-123,141
612,Loftsgordon,Gœsdorf,37,22-446,127
613,Corscot,Laau,53,18-209,32
614,Tony,Bulog,46,22-446,162
615,Sutteridge,Stod,4,11-123,103
616,Victoria,Orneta,99,55-555,184
617,8th,Nueva Fuerza,19,12-123,101
618,Barnett,Lille,53,31-421,139
619,Hazelcrest,Kikinda,58,11-456,135
620,Hansons,Bitanjuan,89,11-123,54
621,Acker,Halmstad,38,11-456,77
622,American Ash,Liuhuang,62,43-080,164
623,Hollow Ridge,Steinkjer,42,22-446,10
624,Alpine,Calgary,4,38-300,79
625,Golf,Wuluhan,98,22-446,165
626,Dorton,Etten-Leur,6,12-123,7
627,Melody,Placer,1,15-145,73
628,Troy,Maiyema,50,12-123,4
629,Schlimgen,Shaxi,26,11-456,102
630,Welch,Beaverlodge,57,18-209,1
631,East,Sloboda,62,11-321,137
632,Reindahl,Borås,52,38-300,170
633,Manitowish,Tinumpuk,78,22-446,78
634,Springview,Malummaduri,13,11-321,197
635,Briar Crest,Mohammedia,90,31-421,34
636,Talmadge,Jardin,37,15-145,145
637,Randy,Uvarovo,35,15-145,85
638,Artisan,Hovås,25,12-123,179
639,Orin,Danyang,95,11-456,7
640,Cambridge,Samālūţ,87,31-421,114
641,Northport,Chaínça,58,11-456,21
642,Eastwood,Pionerskiy,67,11-678,40
643,Prairieview,Dolní Sloupnice,51,11-321,167
644,Forest,Colendra,65,55-555,180
645,Sunbrook,Wiślica,95,31-421,107
646,Magdeline,Keleng,75,38-300,48
647,Fieldstone,Bantarsari Kulon,59,38-300,96
648,Crownhardt,Labinot-Mal,32,11-456,53
649,Aberg,Lefortovo,42,43-080,30
650,Mitchell,Bifeng,50,22-446,128
651,Hazelcrest,Arosbaya,64,18-209,7
652,Anzinger,Shengze,85,15-145,22
653,Scott,Sanxixiang,20,11-456,194
654,Gale,La Roxas,20,18-209,75
655,Spaight,Paniówki,91,55-555,15
656,Towne,Dolati,30,15-145,186
657,Hallows,Al Mushannaf,77,55-555,101
658,Hoffman,Parelhas,67,11-678,22
659,Elmside,Talisay,31,67-023,144
660,Mesta,São Paulo de Olivença,97,31-421,157
661,Coolidge,Orosh,100,18-209,155
662,Paget,Villa Ascasubi,95,11-456,96
663,Sherman,Nantou,68,31-421,196
664,Melvin,Liliba,7,38-300,134
665,Kensington,Changling,51,11-321,136
666,Sachs,Tanalt,94,67-023,147
667,Lunder,Velyka Lepetykha,6,31-421,128
668,Burning Wood,Alfena,43,31-421,157
669,West,Huaping,39,18-209,74
670,Bobwhite,Mambi,1,12-123,169
671,Jackson,Pulau Pinang,71,11-678,69
672,Ronald Regan,Anjirserapat,21,38-300,90
673,Forster,Aglipay,55,11-456,14
674,Tony,Quintela,80,31-421,110
675,Forest Run,Trajouce,82,31-421,174
676,Oakridge,Pontalina,42,38-300,190
677,Straubel,Ḑubāh,32,38-300,33
678,Oak,Irahuan,50,11-321,3
679,Rockefeller,Lajeado,57,55-555,38
680,Maywood,Locminé,89,22-446,176
681,Pearson,Kasui,62,11-678,75
682,Chinook,Krasnoshchekovo,57,11-678,121
683,Merrick,Şalākhid,77,15-145,175
684,Forest,Shuangyang,68,11-321,55
685,Green Ridge,Xuefu,38,11-321,78
686,Kennedy,Touba,69,18-209,195
687,Bartillon,Kingston,11,22-446,110
688,Burrows,Marigot,12,67-023,93
689,Merry,Kaliprak,41,11-456,8
690,Thackeray,Saint-Pierre-Montlimart,26,11-678,185
691,Mesta,Likino-Dulevo,89,67-023,54
692,Bobwhite,Chengyue,61,43-080,120
693,Kennedy,Shimen,81,43-080,65
694,International,Jiaoyuan,19,11-456,143
695,Fairview,Kiełczów,19,18-209,190
696,Wayridge,Shouyan,80,11-456,41
697,Lien,Cimanglid,5,11-123,179
698,Spenser,Sechelt,22,43-080,79
699,West,Yuzawa,73,18-209,168
700,Donald,Stepnogorsk,69,31-421,64
701,Summer Ridge,Ransang,5,15-145,56
702,Marquette,Kebonsari,85,11-456,84
703,Sunnyside,Rio das Ostras,59,11-123,48
704,Karstens,Sam Khok,54,22-446,22
705,Kensington,Aktau,68,15-145,14
706,John Wall,Conel,74,43-080,114
707,Pine View,Plereyan,15,43-080,158
708,Everett,Repelón,15,15-145,95
709,Brickson Park,Теарце,32,43-080,32
710,Anthes,Liushun,15,11-321,4
711,Spohn,Tānsen,89,67-023,200
712,Atwood,Balun,29,43-080,67
713,Pepper Wood,Loay,28,11-678,57
714,Charing Cross,Vermoim,26,11-456,39
715,Twin Pines,Rio Claro,59,11-321,25
716,Spaight,Suifenhe,4,18-209,147
717,David,Krivodanovka,22,22-446,199
718,Forster,Saint-Maurice,29,11-321,154
719,Tony,Iradan,96,15-145,132
720,Lawn,Lagayan,52,12-123,81
721,Loeprich,Bonn,13,18-209,102
722,Veith,"Hospitalet De Llobregat, L'",68,22-446,152
723,Shelley,Taraban Timur,59,15-145,5
724,Holy Cross,Ogaminan,91,22-446,198
725,Forest Dale,Aurillac,93,11-321,152
726,Twin Pines,5 de Mayo,45,18-209,51
727,Superior,La Celia,80,31-421,69
728,Leroy,Dongling,29,38-300,68
729,Pine View,Bocowanti,30,11-456,170
730,Farmco,Mataigou,13,11-456,50
731,Bowman,Heping,53,11-123,113
732,Walton,Babana,22,11-678,43
733,Dennis,Tebingtinggi,85,15-145,124
734,Londonderry,San Felipe,5,11-678,83
735,Northridge,Nacimiento,57,31-421,27
736,Westerfield,Guxi,13,38-300,113
737,Everett,Macapá,19,11-678,138
738,Northport,Youngstown,84,11-123,44
739,Cascade,Béja,88,38-300,24
740,Monica,Köneürgench,17,43-080,171
741,Montana,Tambov,62,11-321,174
742,Blue Bill Park,Harstad,81,22-446,199
743,Buhler,Jēkabpils,8,22-446,116
744,Nova,Zheleznogorsk-Ilimskiy,43,43-080,34
745,7th,Bahir Dar,57,11-678,100
746,4th,Satka,60,38-300,99
747,Old Shore,Rochefort,7,11-678,152
748,Lawn,Itaqui,21,12-123,82
749,Fremont,Kasui,89,11-321,105
750,Utah,Ambarakaraka,50,43-080,160
751,Johnson,Kenitra,16,43-080,185
752,Pleasure,Asan,79,43-080,44
753,Schurz,Thanh Ba,14,38-300,125
754,Magdeline,Lezhu,71,12-123,149
755,Butterfield,San Antonio,40,67-023,191
756,Birchwood,Amalfi,1,11-123,182
757,Reinke,Huohua,39,11-678,35
758,Green Ridge,Al Fukhkhārī,88,38-300,75
759,Portage,Artimet,7,11-123,158
760,Red Cloud,Ipatinga,23,18-209,165
761,Aberg,North Little Rock,10,15-145,177
762,John Wall,San Antonio Suchitepéquez,31,22-446,178
763,Raven,North Shore,77,11-456,194
764,Onsgard,Montpellier,88,18-209,120
765,Nevada,Riosucio,20,18-209,131
766,Crowley,Huertas,10,11-321,151
767,Mockingbird,Zaklików,75,11-678,30
768,Ridgeview,Tsalka,47,55-555,146
769,Derek,Ipauçu,98,11-456,45
770,Ronald Regan,Gitega,42,12-123,19
771,Morningstar,Nioki,32,18-209,45
772,Crest Line,Kolbano,65,22-446,178
773,Lakewood,Poste du Lac,91,18-209,156
774,Banding,Kutasari,1,22-446,26
775,Blaine,Zelmeņi,26,43-080,32
776,Comanche,Kobeřice,35,22-446,137
777,Derek,Gose,97,67-023,195
778,Talisman,Benger,70,11-456,5
779,Kennedy,Sunne,83,18-209,128
780,Oak Valley,Los Aquijes,3,12-123,87
781,John Wall,Santana,76,15-145,13
782,Elka,Songgang,29,31-421,131
783,School,Fenghuo,48,11-321,196
784,Russell,Vangaži,21,15-145,16
785,Kinsman,Itsandra,8,22-446,50
786,Kinsman,Dingjia,37,11-123,105
787,Rieder,Manga,50,55-555,164
788,Hintze,La Habana Vieja,14,11-321,99
789,Oriole,Tyoply Stan,34,43-080,136
790,Lien,Kolumbug,64,11-321,183
791,Southridge,Methóni,100,22-446,142
792,School,Navan,6,11-321,59
793,Hayes,Namyangju,33,31-421,105
794,Golf Course,Frederiksberg,39,11-123,179
795,Superior,Trnovlje pri Celju,25,38-300,141
796,Dorton,Kebonagung,21,11-321,2
797,Ohio,Skövde,37,11-321,41
798,Miller,Sande São Martinho,23,15-145,44
799,Jackson,Baoshan,18,43-080,17
800,Alpine,Kutno,4,55-555,66
801,Bay,Kremenets’,68,12-123,54
802,Ramsey,Xingang,3,43-080,97
803,Merchant,Dancheng,84,55-555,68
804,Bultman,Redon,87,11-678,191
805,Blue Bill Park,Mekele,61,11-321,14
806,Waubesa,Corujeira,79,15-145,162
807,Fuller,Wenfu,57,11-123,4
808,Kim,Chợ Gạo,12,11-321,184
809,Village Green,Mahalapye,39,11-123,104
810,Mosinee,Baidoa,15,22-446,158
811,Tennyson,Mazyr,83,11-678,148
812,Carey,Xingnong,17,43-080,149
813,Mifflin,Tianta,70,11-321,125
814,Shelley,Hartola,22,11-123,47
815,Anniversary,Shkodër,81,12-123,4
816,Talmadge,Piñahan,80,15-145,162
817,Nobel,Studénka,22,15-145,55
818,Tony,Gorbatov,30,11-321,36
819,Orin,Uvarovo,2,43-080,94
820,Jay,Luruaco,86,11-456,169
821,Merrick,Novomoskovs’k,48,12-123,109
822,North,Saint-Avertin,71,15-145,95
823,Jenna,Goiânia,85,12-123,174
824,Declaration,Lesnoy,69,11-456,109
825,Pepper Wood,Sucre,83,31-421,69
826,Norway Maple,Yongfeng,5,67-023,2
827,Russell,Chemin Grenier,71,11-678,170
828,Stoughton,Sobral da Adiça,63,22-446,5
829,Melrose,Vidago,83,55-555,123
830,Everett,Izborsk,49,22-446,82
831,Ludington,Áno Kómi,82,11-456,28
832,Ridgeway,Sindangsari,61,22-446,95
833,Coleman,Gombang,41,11-321,95
834,Anzinger,Hữu Lũng,96,67-023,112
835,Darwin,Ludbreg,98,11-321,180
836,Esker,Wijewo,69,22-446,140
837,Thierer,Sumbersarikrajan,3,18-209,167
838,Brickson Park,Waepau,45,22-446,155
839,Springs,Mölndal,50,11-321,171
840,1st,Soho,22,38-300,164
841,Steensland,Rio Claro,75,11-321,134
842,Emmet,Cabanaconde,75,12-123,123
843,Old Shore,Kudang,1,22-446,146
844,Myrtle,Bobrov,41,18-209,35
845,Merrick,Cikawunggading,78,18-209,20
846,Kropf,Xinzheng,26,43-080,87
847,Algoma,Lindesberg,99,67-023,71
848,Johnson,Irupi,70,31-421,99
849,Summit,Tchintabaraden,71,12-123,53
850,Melody,Sremska Mitrovica,68,31-421,180
851,Maple,Florencia,52,38-300,100
852,Sunbrook,Puerto Deseado,95,11-456,74
853,Randy,Xinxu,6,15-145,180
854,Brickson Park,Kinh Môn,74,55-555,88
855,Dapin,Ylihärmä,32,11-456,73
856,Donald,Prizren,28,11-456,176
857,Troy,Shishan,86,11-456,100
858,Buell,Tallbīsah,26,11-321,157
859,Warner,Jiangchang,30,43-080,192
860,Coolidge,Ganfang,21,11-456,197
861,Hansons,Wangcun,78,12-123,168
862,Heffernan,El Agua Dulcita,89,18-209,86
863,Shasta,Azovo,81,11-123,98
864,Roth,Jiujie,6,43-080,91
865,Amoth,Penteado,76,22-446,114
866,6th,Selemadeg Kelod,25,18-209,191
867,Pepper Wood,Romanovo,94,12-123,176
868,Dakota,Saint-Fargeau-Ponthierry,88,15-145,142
869,Shopko,Maromme,76,12-123,159
870,Loeprich,Ambar,74,11-321,45
871,Eastlawn,Coripata,64,12-123,80
872,Warrior,Itápolis,76,18-209,169
873,Northview,Zhoujiadian,97,67-023,47
874,Stuart,Phnom Penh,7,15-145,72
875,Rutledge,Cherryville,57,43-080,178
876,Sunbrook,Futian,75,11-678,56
877,Loomis,Créteil,14,11-123,67
878,Hooker,Cengang,20,22-446,13
879,Morning,Levski,10,67-023,99
880,Loftsgordon,Xingquan,56,18-209,39
881,Starling,Kebonkaret,18,11-678,181
882,Bayside,Zielonki,12,55-555,182
883,Crowley,Jiaowei,80,15-145,40
884,Norway Maple,Bagong Pagasa,20,15-145,55
885,Huxley,Santiago Atitlán,51,43-080,148
886,East,Penedono,11,55-555,98
887,Laurel,Xuelu,25,11-678,45
888,Leroy,Bangshipu,50,31-421,139
889,Jenifer,Turus,89,55-555,96
890,Dwight,Voskopojë,28,67-023,175
891,Dottie,Tonglin,84,11-321,171
892,Stoughton,Milanówek,9,67-023,66
893,Clove,La Virgen,75,38-300,60
894,Pennsylvania,Xiaojia,67,31-421,49
895,Thackeray,Portela,30,18-209,133
896,Spohn,Oesain,28,67-023,72
897,Thompson,Toroy,26,11-456,70
898,Spenser,Karata,75,43-080,126
899,Messerschmidt,Cihideung Satu,12,55-555,26
900,Nobel,Kyzyl-Kyya,44,31-421,67
901,Thierer,Fulnek,76,22-446,99
902,Annamark,Baocun,3,38-300,71
903,Pond,Lyuban’,7,67-023,123
904,Redwing,Singkup,92,11-678,138
905,Ridgeview,Chishtiān Mandi,76,55-555,163
906,Maryland,Nova Lima,66,31-421,109
907,Lakewood,Maple Plain,42,31-421,149
908,Grasskamp,Jinhui,77,15-145,118
909,Coleman,Margorejo,56,11-321,196
910,Judy,Elekmonar,29,11-678,192
911,Coolidge,Stockholm,6,12-123,171
912,Sherman,Zonghan,23,55-555,32
913,7th,Kalangbret,4,11-678,95
914,Gulseth,Varakļāni,2,15-145,79
915,Hanover,Sapernoye,80,43-080,54
916,Mifflin,Buritama,9,22-446,128
917,Sage,Sanqiao,85,31-421,127
918,Dunning,Gubin,25,67-023,69
919,Portage,Sioguí Abajo,3,11-321,27
920,Moose,Kawambwa,7,11-678,171
921,Lillian,Mriyunan,9,31-421,174
922,Warbler,Kotakan Selatan,46,67-023,185
923,Bartillon,Concepción,13,12-123,132
924,Hanson,Verkhniy Landekh,58,67-023,96
925,Huxley,Pulo,6,11-456,8
926,Bluejay,Humaitá,93,31-421,38
927,Forest Dale,Narva,70,11-678,52
928,Londonderry,Vecumnieki,27,43-080,186
929,Bartelt,Changleng,99,15-145,153
930,Hanson,Rato,33,43-080,85
931,Magdeline,Nîmes,61,11-456,20
932,Kingsford,Wilga,59,11-321,18
933,Hooker,Ongi,4,31-421,42
934,Butterfield,Dogbo,7,18-209,21
935,Hovde,Haguimit,92,43-080,67
936,Katie,Pierreville,64,18-209,99
937,Burrows,Furong,21,31-421,185
938,Monterey,Pandansari,92,11-456,63
939,Northport,Putang,49,18-209,117
940,Huxley,Lampa,78,11-123,138
941,Eggendart,Panyuran,23,43-080,140
942,Huxley,Atibaia,29,67-023,157
943,Tony,Aquitania,51,12-123,55
944,Michigan,Besukrejo,13,15-145,117
945,Sullivan,Beiqiao,11,43-080,8
946,Almo,Tamot,36,11-321,108
947,Hooker,Madara,96,11-321,146
948,Ronald Regan,Drummondville,9,12-123,48
949,Oak,Barra Velha,45,22-446,162
950,Lake View,Watangan,98,18-209,34
951,Laurel,Slavyansk-na-Kubani,18,11-123,172
952,Mallard,Cimuncang,77,15-145,175
953,Leroy,Néa Róda,55,11-123,178
954,Cottonwood,Niedźwiedź,68,11-456,7
955,Scofield,Corinto,40,11-678,74
956,Independence,Trongsa,99,11-321,7
957,Dovetail,Zhanlong,73,11-123,123
958,North,Trondheim,38,11-456,89
959,Weeping Birch,Trzcinica,25,55-555,46
960,Jackson,Kista,59,11-123,103
961,Jay,Kongkeshu,4,11-678,163
962,Thierer,Banhā,89,55-555,151
963,Clemons,Am Djarass,19,12-123,106
964,Elka,Coutada,10,11-456,193
965,Golf Course,Nangakeo,33,22-446,169
966,Vahlen,Shilong,80,11-123,173
967,Little Fleur,San Eugenio,92,15-145,197
968,3rd,Putrajaya,93,12-123,164
969,Meadow Vale,Richmond,10,38-300,75
970,Judy,Dawe,15,22-446,63
971,Express,Livadiya,21,18-209,154
972,Ruskin,Sukadana,14,11-456,44
973,Milwaukee,Champaign,81,31-421,166
974,Northfield,Ystad,10,67-023,116
975,Stoughton,Aragarças,64,67-023,151
976,Marquette,Jiuhu,18,12-123,64
977,Prairieview,Phu Kam Yao,81,43-080,57
978,Steensland,Lagoa Santa,77,43-080,128
979,Bay,Hanyuan,27,11-678,96
980,Rusk,Sison,41,38-300,85
981,Doe Crossing,Maranganí,89,43-080,198
982,Forest Dale,Hluboká nad Vltavou,65,22-446,124
983,Packers,Eg-Uur,52,22-446,161
984,Jay,Kutloanong,18,12-123,118
985,Parkside,Puerto Nariño,70,38-300,96
986,Ohio,Vannes,100,67-023,57
987,High Crossing,Pyinmana,98,31-421,71
988,Gina,Kiuruvesi,27,11-321,142
989,Jenifer,Hashimoto,76,67-023,113
990,Stang,Tamano,53,11-456,9
991,Annamark,Shalizhai,53,55-555,122
992,Gale,Pęczniew,65,67-023,115
993,Talmadge,Bicurga,90,11-678,9
994,Lakewood,Verbivka,55,11-678,9
995,Russell,Sosnovyy Bor,83,38-300,195
996,Bunker Hill,Rāvar,85,31-421,187
997,Melby,Sokolniki,69,11-456,6
998,Pierstorff,Maubeuge,66,31-421,132
999,Eastwood,Dalai,66,18-209,59
1000,Old Gate,Pau,33,55-555,103
